KUIPER-00089            
1 64834U 25151U   25221.33335648  .00076041  00000+0  21611-2 0  9996
2 64834  51.8782 171.6230 0005221 241.5585  20.1807 15.35473474  4777
KUIPER-00090            
1 64835U 25151V   25222.13566322  .00023449  00000+0  68243-3 0  9998
2 64835  51.8782 167.7908 0005358 247.5863 112.4556 15.35297604  3800
KUIPER-00091            
1 64836U 25151W   25222.45025371  .00025478  00000+0  72538-3 0  9994
2 64836  51.8786 166.1489 0005002 221.0807 138.9803 15.35939281  3861
KUIPER-00092            
1 64837U 25151X   25222.12789587  .00040742  00000+0  11535-2 0  9995
2 64837  51.8782 167.7358 0005628 232.6785 127.3689 15.35872429  5021
KUIPER-00093            
1 64838U 25151Y   25222.45688557  .00038023  00000+0  10862-2 0  9998
2 64838  51.8791 166.1980 0004613 244.8416 115.2092 15.35629072  3863
KUIPER-00094            
1 64839U 25151Z   25222.32261538  .00034070  00000+0  96822-3 0  9990
2 64839  51.8783 166.7913 0005086 233.8871 126.1645 15.35843276  4078
